{
  "63373": {
    "noradId": "63373",
    "tle": [
      "1 63373C 25063L   26104.90395833  .00018435  00000+0  62135-3 0  1049",
      "2 63373  53.1577 241.6460 0001117  79.5802 172.9559 15.30181890    11"
    ]
  },
  "63374": {
    "noradId": "63374",
    "tle": [
      "1 63374C 25063M   26104.87965278  .00018139  00000+0  61126-3 0  1042",
      "2 63374  53.1579 241.7243 0000749  31.1842 104.8280 15.30187471    18"
    ]
  },
  "63375": {
    "noradId": "63375",
    "tle": [
      "1 63375C 25063N   26104.90187500  .00019386  00000+0  65339-3 0  1046",
      "2 63375  53.1580 241.6110 0001105  80.1291 184.1897 15.30181267    14"
    ]
  },
  "63376": {
    "noradId": "63376",
    "tle": [
      "1 63376C 25063P   26104.91715278  .00034462  00000+0  11614-2 0  1045",
      "2 63376  53.1568 254.2456 0001321  86.2410 294.1348 15.30176678    17"
    ]
  },
  "63377": {
    "noradId": "63377",
    "tle": [
      "1 63377C 25063Q   26104.84493056  .00050798  00000+0  17121-2 0  1044",
      "2 63377  53.1573 244.3458 0001178  82.2021  56.6695 15.30166284    18"
    ]
  },
  "63378": {
    "noradId": "63378",
    "tle": [
      "1 63378C 25063R   26104.91645833  .00020017  00000+0  67453-3 0  1040",
      "2 63378  53.1576 244.0681 0000989  82.6450  61.3744 15.30187943    19"
    ]
  },
  "63379": {
    "noradId": "63379",
    "tle": [
      "1 63379C 25063S   26104.86645833  .00048627  00000+0  16042-2 0  1049",
      "2 63379  53.1577 244.1676 0001041 332.8871 325.8802 15.30857534    16"
    ]
  },
  "63380": {
    "noradId": "63380",
    "tle": [
      "1 63380C 25063T   26104.89631944  .00030163  00000+0  10167-2 0  1040",
      "2 63380  53.1588 244.2783 0001262  78.9864 255.8608 15.30174951    16"
    ]
  },
  "63381": {
    "noradId": "63381",
    "tle": [
      "1 63381C 25063U   26104.92409722  .00015141  00000+0  51018-3 0  1042",
      "2 63381  53.1582 244.0920 0001131  79.1291  77.9018 15.30191195    11"
    ]
  },
  "63382": {
    "noradId": "63382",
    "tle": [
      "1 63382C 25063V   26104.91923611  .00316560  00000+0  66789-3 0  1040",
      "2 63382  53.1412 218.7552 0016100 314.7617 262.2510 15.97696591    14"
    ]
  },
  "63383": {
    "noradId": "63383",
    "tle": [
      "1 63383C 25063W   26104.87409722  .00055622  00000+0  18744-2 0  1044",
      "2 63383  53.1574 255.0529 0001051  80.2497 120.3652 15.30168486    17"
    ]
  },
  "63384": {
    "noradId": "63384",
    "tle": [
      "1 63384C 25063X   26104.84770833  .00044913  00000+0  15137-2 0  1040",
      "2 63384  53.1586 244.6490 0001142  73.9036 277.4075 15.30169562    10"
    ]
  },
  "63385": {
    "noradId": "63385",
    "tle": [
      "1 63385C 25063Y   26104.86437500  .00054562  00000+0  18388-2 0  1046",
      "2 63385  53.1574 255.0834 0001039  79.1381  79.5129 15.30167145    18"
    ]
  },
  "63386": {
    "noradId": "63386",
    "tle": [
      "1 63386C 25063Z   26104.91159722  .00034777  00000+0  11721-2 0  1040",
      "2 63386  53.1579 254.6759 0001016  78.6190  61.7671 15.30173786    15"
    ]
  },
  "63387": {
    "noradId": "63387",
    "tle": [
      "1 63387C 25063AA  26104.89354167  .00031192  00000+0  10514-2 0  1045",
      "2 63387  53.1576 241.7878 0001131  76.8336  71.7527 15.30173013    16"
    ]
  },
  "63388": {
    "noradId": "63388",
    "tle": [
      "1 63388C 25063AB  26104.85465278  .00051810  00000+0  17446-2 0  1048",
      "2 63388  53.1571 242.0709 0001852  74.9459 166.8807 15.30193475    15"
    ]
  },
  "63389": {
    "noradId": "63389",
    "tle": [
      "1 63389C 25063AC  26104.89909722  .00027676  00000+0  93261-3 0  1043",
      "2 63389  53.1586 244.3099 0001080  73.0592 253.8287 15.30184547    19"
    ]
  },
  "63399": {
    "noradId": "63399",
    "tle": [
      "1 63399C 25065A   26104.89423611  .00033676  00000+0  12210-2 0  1045",
      "2 63399  43.0000 262.5393 0001547 267.9790 245.0653 15.27529126    12"
    ]
  },
  "63400": {
    "noradId": "63400",
    "tle": [
      "1 63400C 25065B   26104.84770833  .00042623  00000+0  15438-2 0  1041",
      "2 63400  43.0017 262.4622 0001880 276.4605 121.7728 15.27556687    12"
    ]
  },
  "63401": {
    "noradId": "63401",
    "tle": [
      "1 63401C 25065C   26104.84076389  .00028257  00000+0  10237-2 0  1046",
      "2 63401  43.0001 262.7927 0001427 272.8442 326.9105 15.27557187    17"
    ]
  },
  "63402": {
    "noradId": "63402",
    "tle": [
      "1 63402C 25065D   26104.87618056  .00046649  00000+0  16899-2 0  1048",
      "2 63402  43.0023 262.8282 0001345 270.8797  64.8106 15.27551063    13"
    ]
  },
  "63403": {
    "noradId": "63403",
    "tle": [
      "1 63403C 25065E   26104.92895833  .00040542  00000+0  14688-2 0  1045",
      "2 63403  42.9998 262.2733 0001541 278.2559  94.1472 15.27549689    17"
    ]
  },
  "63404": {
    "noradId": "63404",
    "tle": [
      "1 63404C 25065F   26104.84979167  .00047242  00000+0  17103-2 0  1049",
      "2 63404  43.0020 262.4372 0001761 275.4701 141.3356 15.27569707    18"
    ]
  },
  "63405": {
    "noradId": "63405",
    "tle": [
      "1 63405C 25065G   26104.88868056  .00061079  00000+0  22124-2 0  1041",
      "2 63405  43.0003 262.5479 0001463 275.9058 213.5086 15.27546551    12"
    ]
  },
  "63406": {
    "noradId": "63406",
    "tle": [
      "1 63406C 25065H   26104.85812500  .00055001  00000+0  19939-2 0  1040",
      "2 63406  43.0014 258.8672 0001484 269.8556 218.5320 15.27521947    14"
    ]
  },
  "63407": {
    "noradId": "63407",
    "tle": [
      "1 63407C 25065J   26104.83659722  .00045193  00000+0  16372-2 0  1043",
      "2 63407  42.9999 262.7361 0001373 275.2024 329.9076 15.27550059    13"
    ]
  },
  "63408": {
    "noradId": "63408",
    "tle": [
      "1 63408C 25065K   26104.87131944  .00055423  00000+0  20076-2 0  1042",
      "2 63408  43.0026 266.5716 0001445 276.9164 281.4947 15.27548355    11"
    ]
  },
  "63409": {
    "noradId": "63409",
    "tle": [
      "1 63409C 25065L   26104.89979167  .00064310  00000+0  23293-2 0  1041",
      "2 63409  43.0013 262.6168 0001442 275.2368 218.7575 15.27545632    16"
    ]
  },
  "63410": {
    "noradId": "63410",
    "tle": [
      "1 63410C 25065M   26104.92548611  .00053437  00000+0  19354-2 0  1044",
      "2 63410  43.0001 262.3674 0001483 272.9233  44.9863 15.27552478    19"
    ]
  },
  "63411": {
    "noradId": "63411",
    "tle": [
      "1 63411C 25065N   26104.88937500  .00044155  00000+0  15993-2 0  1041",
      "2 63411  43.0024 270.1375 0001677 282.8657 292.7094 15.27554906    12"
    ]
  },
  "63412": {
    "noradId": "63412",
    "tle": [
      "1 63412C 25065P   26104.90881944  .00046188  00000+0  16766-2 0  1042",
      "2 63412  43.0008 265.7490 0001698 280.3863 350.9561 15.27483294    15"
    ]
  },
  "63413": {
    "noradId": "63413",
    "tle": [
      "1 63413C 25065Q   26104.87618056  .00051634  00000+0  18705-2 0  1048",
      "2 63413  43.0000 262.5635 0001353 273.2345 154.4786 15.27547695    10"
    ]
  },
  "63414": {
    "noradId": "63414",
    "tle": [
      "1 63414C 25065R   26104.87965278  .00057098  00000+0  20680-2 0  1045",
      "2 63414  43.0017 263.1434 0001707 275.4735 276.6521 15.27550939    12"
    ]
  },
  "63415": {
    "noradId": "63415",
    "tle": [
      "1 63415C 25065S   26104.84909722  .00043530  00000+0  15768-2 0  1042",
      "2 63415  43.0009 262.8125 0001409 273.8429 322.3018 15.27553819    18"
    ]
  },
  "63416": {
    "noradId": "63416",
    "tle": [
      "1 63416C 25065T   26104.88312500  .00066165  00000+0  23966-2 0  1047",
      "2 63416  42.9998 262.4348 0001605 275.5136 218.7399 15.27544356    15"
    ]
  },
  "63417": {
    "noradId": "63417",
    "tle": [
      "1 63417C 25065U   26104.89631944  .00060417  00000+0  21883-2 0  1045",
      "2 63417  43.0006 262.5016 0001460 274.5157 228.7233 15.27547846    17"
    ]
  },
  "63418": {
    "noradId": "63418",
    "tle": [
      "1 63418C 25065V   26104.83520833  .00028860  00000+0  10456-2 0  1044",
      "2 63418  43.0023 263.1396 0001327 275.7197 137.8545 15.27556314    10"
    ]
  },
  "63419": {
    "noradId": "63419",
    "tle": [
      "1 63419C 25065W   26104.84979167  .00036643  00000+0  13273-2 0  1042",
      "2 63419  43.0026 263.1090 0001560 273.5349 199.0982 15.27558033    14"
    ]
  },
  "63420": {
    "noradId": "63420",
    "tle": [
      "1 63420C 25065X   26104.90187500  .00045180  00000+0  16370-2 0  1040",
      "2 63420  43.0006 262.2199 0001529 279.5304   0.4316 15.27544007    18"
    ]
  },
  "63421": {
    "noradId": "63421",
    "tle": [
      "1 63421C 25065Y   26104.85465278  .00031576  00000+0  11439-2 0  1041",
      "2 63421  43.0005 262.7303 0001435 276.6014   4.2941 15.27556180    13"
    ]
  },
  "63422": {
    "noradId": "63422",
    "tle": [
      "1 63422C 25065Z   26104.88173611  .00050843  00000+0  18418-2 0  1044",
      "2 63422  43.0022 262.7138 0001484 271.8132 101.6120 15.27547866    13"
    ]
  },
  "63423": {
    "noradId": "63423",
    "tle": [
      "1 63423C 25065AA  26104.87270833  .00063861  00000+0  23121-2 0  1049",
      "2 63423  43.0011 262.3437 0001476 291.0548 209.4435 15.27560763    13"
    ]
  },
  "63424": {
    "noradId": "63424",
    "tle": [
      "1 63424C 25065AB  26104.91506944  .00049126  00000+0  17788-2 0  1040",
      "2 63424  43.0026 262.8263 0002200 274.1904 155.3785 15.27562357    14"
    ]
  },
  "63425": {
    "noradId": "63425",
    "tle": [
      "1 63425C 25065AC  26104.84840278  .00051855  00000+0  18784-2 0  1043",
      "2 63425  43.0016 262.8553 0001254 279.1426 284.9076 15.27549552    12"
    ]
  },
  "63426": {
    "noradId": "63426",
    "tle": [
      "1 63426C 25065AD  26104.88104167  .00056672  00000+0  20525-2 0  1046",
      "2 63426  43.0028 262.9786 0001753 278.0087 345.4430 15.27552660    11"
    ]
  }
}